[{"OBJECT_NAME":"OBJECT E","OBJECT_ID":"2024-153E","EPOCH":"2026-03-09T23:09:09.513216","MEAN_MOTION":15.24133271,"ECCENTRICITY":4.895e-5,"INCLINATION":97.6591,"RA_OF_ASC_NODE":203.8355,"ARG_OF_PERICENTER":171.5214,"MEAN_ANOMALY":188.6031,"EPHEMERIS_TYPE":0,"CLASSIFICATION_TYPE":"U","NORAD_CAT_ID":60749,"ELEMENT_SET_NO":999,"REV_AT_EPOCH":8470,"BSTAR":0.00081752478,"MEAN_MOTION_DOT":0.00019841,"MEAN_MOTION_DDOT":0},{"OBJECT_NAME":"JD 1","OBJECT_ID":"1984-012C","EPOCH":"2026-03-09T23:30:21.347136","MEAN_MOTION":13.74166667,"ECCENTRICITY":0.07563161,"INCLINATION":63.3111,"RA_OF_ASC_NODE":313.7014,"ARG_OF_PERICENTER":126.7081,"MEAN_ANOMALY":240.5908,"EPHEMERIS_TYPE":0,"CLASSIFICATION_TYPE":"U","NORAD_CAT_ID":14728,"ELEMENT_SET_NO":999,"REV_AT_EPOCH":33001,"BSTAR":0.00047185243,"MEAN_MOTION_DOT":3.937e-5,"MEAN_MOTION_DDOT":0}]
